{
  "type": "FeatureCollection",
  "features": [
    {
      "type": "Feature",
      "properties": {
        "norad_id": 44709,
        "name": "BEIDOU-3 IGSO-3 (C40)",
        "group": "gnss",
        "lat": -0.10413643222225738,
        "lon": -77.08585812581151,
        "alt_km": 35977.84117342556,
        "timestamp": "2025-12-02T06:27:53.257533+00:00",
        "meta_object_name": "BEIDOU-3 IGSO-3 (C40)",
        "meta_object_id": "2019-073A",
        "meta_epoch": "2025-11-20T07:11:22.740000",
        "meta_mean_motion": 1.00250097,
        "meta_eccentricity": 0.0044538,
        "meta_inclination": 55.163,
        "meta_ra_of_asc_node": 283.159,
        "meta_arg_of_pericenter": 191.5856,
        "meta_mean_anomaly": 168.2409,
        "meta_ephemeris_type": 0,
        "meta_classification_type": "U",
        "meta_norad_cat_id": 44709,
        "meta_element_set_no": 999,
        "meta_rev_at_epoch": 2236,
        "meta_bstar": 0,
        "meta_mean_motion_dot": -2.06e-06,
        "meta_mean_motion_ddot": 0,
        "tle_line1": "1 44709U 19073A   25324.29956875 -.00000206  00000+0  00000+0 0  9998",
        "tle_line2": "2 44709  55.1630 283.1590 0044538 191.5856 168.2409  1.00250097 22360"
      },
      "geometry": {
        "type": "Point",
        "coordinates": [
          -77.08585812581151,
          -0.10413643222225738
        ]
      }
    },
    {
      "type": "Feature",
      "properties": {
        "norad_id": 44793,
        "name": "BEIDOU-3 M22 (C44)",
        "group": "gnss",
        "lat": 10.324863844374123,
        "lon": 119.15953718300511,
        "alt_km": 21539.58534531573,
        "timestamp": "2025-12-02T06:27:53.257546+00:00",
        "meta_object_name": "BEIDOU-3 M22 (C44)",
        "meta_object_id": "2019-078A",
        "meta_epoch": "2025-11-30T22:42:34.267680",
        "meta_mean_motion": 1.86231848,
        "meta_eccentricity": 0.00056075,
        "meta_inclination": 54.1193,
        "meta_ra_of_asc_node": 306.8002,
        "meta_arg_of_pericenter": 22.5114,
        "meta_mean_anomaly": 337.5067,
        "meta_ephemeris_type": 0,
        "meta_classification_type": "U",
        "meta_norad_cat_id": 44793,
        "meta_element_set_no": 999,
        "meta_rev_at_epoch": 4095,
        "meta_bstar": 0,
        "meta_mean_motion_dot": -5.6e-07,
        "meta_mean_motion_ddot": 0,
        "tle_line1": "1 44793U 19078A   25334.94622995 -.00000056  00000+0  00000+0 0  9995",
        "tle_line2": "2 44793  54.1193 306.8002 0005607  22.5114 337.5067  1.86231848 40954"
      },
      "geometry": {
        "type": "Point",
        "coordinates": [
          119.15953718300511,
          10.324863844374123
        ]
      }
    },
    {
      "type": "Feature",
      "properties": {
        "norad_id": 44794,
        "name": "BEIDOU-3 M21 (C43)",
        "group": "gnss",
        "lat": 51.47997345040117,
        "lon": 12.198467916016867,
        "alt_km": 21517.751520060847,
        "timestamp": "2025-12-02T06:27:53.257559+00:00",
        "meta_object_name": "BEIDOU-3 M21 (C43)",
        "meta_object_id": "2019-078B",
        "meta_epoch": "2025-12-01T02:00:26.030304",
        "meta_mean_motion": 1.86227539,
        "meta_eccentricity": 0.00038706,
        "meta_inclination": 54.0922,
        "meta_ra_of_asc_node": 306.7607,
        "meta_arg_of_pericenter": 10.0971,
        "meta_mean_anomaly": 349.9036,
        "meta_ephemeris_type": 0,
        "meta_classification_type": "U",
        "meta_norad_cat_id": 44794,
        "meta_element_set_no": 999,
        "meta_rev_at_epoch": 4096,
        "meta_bstar": 0,
        "meta_mean_motion_dot": -5.7e-07,
        "meta_mean_motion_ddot": 0,
        "tle_line1": "1 44794U 19078B   25335.08363461 -.00000057  00000+0  00000+0 0  9993",
        "tle_line2": "2 44794  54.0922 306.7607 0003870  10.0971 349.9036  1.86227539 40963"
      },
      "geometry": {
        "type": "Point",
        "coordinates": [
          12.198467916016867,
          51.47997345040117
        ]
      }
    },
    {
      "type": "Feature",
      "properties": {
        "norad_id": 44850,
        "name": "COSMOS 2544 (759)",
        "group": "gnss",
        "lat": -60.44830664108101,
        "lon": -46.095015210056836,
        "alt_km": 19101.666911689164,
        "timestamp": "2025-12-02T06:27:53.257572+00:00",
        "meta_object_name": "COSMOS 2544 (759)",
        "meta_object_id": "2019-088A",
        "meta_epoch": "2025-12-01T11:17:07.204992",
        "meta_mean_motion": 2.13101815,
        "meta_eccentricity": 0.00136421,
        "meta_inclination": 65.4539,
        "meta_ra_of_asc_node": 80.3354,
        "meta_arg_of_pericenter": 248.7415,
        "meta_mean_anomaly": 111.1111,
        "meta_ephemeris_type": 0,
        "meta_classification_type": "U",
        "meta_norad_cat_id": 44850,
        "meta_element_set_no": 999,
        "meta_rev_at_epoch": 4650,
        "meta_bstar": 0,
        "meta_mean_motion_dot": -1.2e-07,
        "meta_mean_motion_ddot": 0,
        "tle_line1": "1 44850U 19088A   25335.47022228 -.00000012  00000+0  00000+0 0  9994",
        "tle_line2": "2 44850  65.4539  80.3354 0013642 248.7415 111.1111  2.13101815 46509"
      },
      "geometry": {
        "type": "Point",
        "coordinates": [
          -46.095015210056836,
          -60.44830664108101
        ]
      }
    },
    {
      "type": "Feature",
      "properties": {
        "norad_id": 44864,
        "name": "BEIDOU-3 M19 (C41)",
        "group": "gnss",
        "lat": -56.39993986980955,
        "lon": -19.606489906367422,
        "alt_km": 21486.793749135675,
        "timestamp": "2025-12-02T06:27:53.257583+00:00",
        "meta_object_name": "BEIDOU-3 M19 (C41)",
        "meta_object_id": "2019-090A",
        "meta_epoch": "2025-12-01T09:01:40.910016",
        "meta_mean_motion": 1.86231118,
        "meta_eccentricity": 0.00174903,
        "meta_inclination": 56.3832,
        "meta_ra_of_asc_node": 69.3391,
        "meta_arg_of_pericenter": 284.7373,
        "meta_mean_anomaly": 107.0465,
        "meta_ephemeris_type": 0,
        "meta_classification_type": "U",
        "meta_norad_cat_id": 44864,
        "meta_element_set_no": 999,
        "meta_rev_at_epoch": 4055,
        "meta_bstar": 0,
        "meta_mean_motion_dot": -4.1e-07,
        "meta_mean_motion_ddot": 0,
        "tle_line1": "1 44864U 19090A   25335.37616794 -.00000041  00000+0  00000+0 0  9990",
        "tle_line2": "2 44864  56.3832  69.3391 0017490 284.7373 107.0465  1.86231118 40559"
      },
      "geometry": {
        "type": "Point",
        "coordinates": [
          -19.606489906367422,
          -56.39993986980955
        ]
      }
    },
    {
      "type": "Feature",
      "properties": {
        "norad_id": 44865,
        "name": "BEIDOU-3 M20 (C42)",
        "group": "gnss",
        "lat": 0.32286994304003197,
        "lon": 69.55663950265333,
        "alt_km": 21509.634150761765,
        "timestamp": "2025-12-02T06:27:53.257594+00:00",
        "meta_object_name": "BEIDOU-3 M20 (C42)",
        "meta_object_id": "2019-090B",
        "meta_epoch": "2025-12-01T04:44:21.164352",
        "meta_mean_motion": 1.86231112,
        "meta_eccentricity": 0.0014612,
        "meta_inclination": 56.3845,
        "meta_ra_of_asc_node": 69.3793,
        "meta_arg_of_pericenter": 297.5654,
        "meta_mean_anomaly": 64.0235,
        "meta_ephemeris_type": 0,
        "meta_classification_type": "U",
        "meta_norad_cat_id": 44865,
        "meta_element_set_no": 999,
        "meta_rev_at_epoch": 4053,
        "meta_bstar": 0,
        "meta_mean_motion_dot": -3.9e-07,
        "meta_mean_motion_ddot": 0,
        "tle_line1": "1 44865U 19090B   25335.19746718 -.00000039  00000+0  00000+0 0  9998",
        "tle_line2": "2 44865  56.3845  69.3793 0014612 297.5654  64.0235  1.86231112 40536"
      },
      "geometry": {
        "type": "Point",
        "coordinates": [
          69.55663950265333,
          0.32286994304003197
        ]
      }
    },
    {
      "type": "Feature",
      "properties": {
        "norad_id": 45344,
        "name": "BEIDOU-3 G2 (C60)",
        "group": "gnss",
        "lat": -1.2708208030228352,
        "lon": -111.69071062977818,
        "alt_km": 35776.82445909131,
        "timestamp": "2025-12-02T06:27:53.257606+00:00",
        "meta_object_name": "BEIDOU-3 G2 (C60)",
        "meta_object_id": "2020-017A",
        "meta_epoch": "2025-12-01T19:19:57.564768",
        "meta_mean_motion": 1.00270537,
        "meta_eccentricity": 0.0004488,
        "meta_inclination": 2.9791,
        "meta_ra_of_asc_node": 43.5319,
        "meta_arg_of_pericenter": 263.7784,
        "meta_mean_anomaly": 133.6593,
        "meta_ephemeris_type": 0,
        "meta_classification_type": "U",
        "meta_norad_cat_id": 45344,
        "meta_element_set_no": 999,
        "meta_rev_at_epoch": 2128,
        "meta_bstar": 0,
        "meta_mean_motion_dot": -1.21e-06,
        "meta_mean_motion_ddot": 0,
        "tle_line1": "1 45344U 20017A   25335.80552737 -.00000121  00000+0  00000+0 0  9998",
        "tle_line2": "2 45344   2.9791  43.5319 0004488 263.7784 133.6593  1.00270537 21284"
      },
      "geometry": {
        "type": "Point",
        "coordinates": [
          -111.69071062977818,
          -1.2708208030228352
        ]
      }
    }
  ]
}